0 COSMOS 1674
1 15944U 85069A   13281.80542382  .00002421  00000-0  14836-3 0  6977
2 15944 082.5181 116.6949 0022686 116.7155 243.6400 15.09513626533936
0 COSMOS 1674
1 15944U 85069A   13283.13118889  .00003417  00000-0  21008-3 0  6982
2 15944 082.5187 115.4012 0022701 112.0848 248.2795 15.09525203534131
0 COSMOS 1674
1 15944U 85069A   13286.11413064  .00003253  00000-0  19982-3 0  7006
2 15944 082.5177 112.4907 0022615 102.0981 258.2784 15.09541780534587
0 COSMOS 1674
1 15944U 85069A   13287.50615759  .00003942  00000-0  24246-3 0  7010
2 15944 082.5172 111.1323 0022579 097.4281 262.9515 15.09548962534795
0 COSMOS 1674
1 15944U 85069A   13288.83188764  .00004896  00000-0  30148-3 0  7026
2 15944 082.5171 109.8385 0022561 092.8986 267.4826 15.09562095534998
0 COSMOS 1674
1 15944U 85069A   13290.09132243  .00004718  00000-0  29042-3 0  7033
2 15944 082.5168 108.6093 0022525 088.6130 271.7679 15.09570624535184
0 COSMOS 1674
1 15944U 85069A   13291.15189272  .00004266  00000-0  26233-3 0  7043
2 15944 082.5168 107.5742 0022500 085.0817 275.2980 15.09579344535349
0 COSMOS 1674
1 15944U 85069A   13292.47759798  .00004108  00000-0  25253-3 0  7052
2 15944 082.5170 106.2804 0022493 080.6366 279.7405 15.09588950535544
0 COSMOS 1674
1 15944U 85069A   13293.80329370  .00004720  00000-0  29032-3 0  7069
2 15944 082.5173 104.9867 0022465 076.1441 284.2285 15.09596340535745
0 COSMOS 1674
1 15944U 85069A   13295.12898191  .00004740  00000-0  29150-3 0  7072
2 15944 082.5174 103.6929 0022460 071.5910 288.7758 15.09605440535944
